ALOS-4 (DAICHI-4)       
1 60182U 24123A   24255.49670192  .00001971  00000+0  27068-3 0  9998
2 60182  97.9212 350.9157 0001494  97.1363 263.0019 14.79472345 10701
